[{"OBJECT_NAME":"STARLINK-3875","OBJECT_ID":"2022-049AJ","EPOCH":"2026-03-09T21:59:17.203776","MEAN_MOTION":15.08834905,"ECCENTRICITY":0.00013865,"INCLINATION":53.2179,"RA_OF_ASC_NODE":48.1036,"ARG_OF_PERICENTER":97.6084,"MEAN_ANOMALY":262.5066,"EPHEMERIS_TYPE":0,"CLASSIFICATION_TYPE":"U","NORAD_CAT_ID":52483,"ELEMENT_SET_NO":999,"REV_AT_EPOCH":21366,"BSTAR":4.1743268e-5,"MEAN_MOTION_DOT":3.76e-6,"MEAN_MOTION_DDOT":0},{"OBJECT_NAME":"TITAN 3C TRANSTAGE DEB","OBJECT_ID":"1965-082EA","EPOCH":"2026-03-09T23:10:17.723424","MEAN_MOTION":15.08375165,"ECCENTRICITY":0.00122709,"INCLINATION":32.3951,"RA_OF_ASC_NODE":291.2548,"ARG_OF_PERICENTER":351.0252,"MEAN_ANOMALY":9.0191,"EPHEMERIS_TYPE":0,"CLASSIFICATION_TYPE":"U","NORAD_CAT_ID":1835,"ELEMENT_SET_NO":999,"REV_AT_EPOCH":23237,"BSTAR":0.00035954995,"MEAN_MOTION_DOT":5.778e-5,"MEAN_MOTION_DDOT":0}]
